<?xml version="1.0" ?><gpx xmlns="http://www.topografix.com/GPX/1/1" creator="GaiaGPS" version="1.1" xmlns:xsi="http://www.w3.org/2001/XMLSchema-instance" xsi:schemaLocation="http://www.topografix.com/GPX/1/1 http://www.topografix.com/GPX/1/1/gpx.xsd"><trk><name>Refugi del Pla de la Font - Àneu -&gt; Son (19,6 km)</name><desc></desc><extensions><line xmlns="http://www.topografix.com/GPX/gpx_style/0/2"><color>FF0000</color></line></extensions><trkseg><trkpt lat="42.604145" lon="1.110351"><ele>1412.0</ele></trkpt><trkpt lat="42.604141" lon="1.11033"><ele>1412.5</ele></trkpt><trkpt lat="42.604074" lon="1.110553"><ele>1413.25</ele></trkpt><trkpt lat="42.604076" lon="1.110733"><ele>1411.75</ele></trkpt><trkpt lat="42.604034" lon="1.110847"><ele>1412.25</ele></trkpt><trkpt lat="42.60399" lon="1.110889"><ele>1413.5</ele></trkpt><trkpt lat="42.603946" lon="1.110909"><ele>1414.75</ele></trkpt><trkpt lat="42.603852" lon="1.110848"><ele>1418.75</ele></trkpt><trkpt lat="42.603828" lon="1.110798"><ele>1420.0</ele></trkpt><trkpt lat="42.603842" lon="1.11065"><ele>1420.75</ele></trkpt><trkpt lat="42.60393" lon="1.110349"><ele>1420.0</ele></trkpt><trkpt lat="42.604004" lon="1.109868"><ele>1421.25</ele></trkpt><trkpt lat="42.604046" lon="1.108499"><ele>1430.75</ele></trkpt><trkpt lat="42.604054" lon="1.108112"><ele>1435.25</ele></trkpt><trkpt lat="42.604072" lon="1.107653"><ele>1441.5</ele></trkpt><trkpt lat="42.604246" lon="1.106834"><ele>1446.5</ele></trkpt><trkpt lat="42.604397" lon="1.106002"><ele>1452.5</ele></trkpt><trkpt lat="42.604505" lon="1.1052"><ele>1456.25</ele></trkpt><trkpt lat="42.604552" lon="1.104671"><ele>1458.0</ele></trkpt><trkpt lat="42.604501" lon="1.10322"><ele>1469.5</ele></trkpt><trkpt lat="42.604452" lon="1.102554"><ele>1478.0</ele></trkpt><trkpt lat="42.604534" lon="1.102316"><ele>1476.25</ele></trkpt><trkpt lat="42.604592" lon="1.102017"><ele>1476.75</ele></trkpt><trkpt lat="42.604626" lon="1.101734"><ele>1478.25</ele></trkpt><trkpt lat="42.60465" lon="1.101592"><ele>1479.25</ele></trkpt><trkpt lat="42.604567" lon="1.10152"><ele>1485.0</ele></trkpt><trkpt lat="42.604501" lon="1.10156"><ele>1487.75</ele></trkpt><trkpt lat="42.604456" lon="1.101707"><ele>1487.75</ele></trkpt><trkpt lat="42.604434" lon="1.101981"><ele>1485.75</ele></trkpt><trkpt lat="42.604262" lon="1.102402"><ele>1490.0</ele></trkpt><trkpt lat="42.60418" lon="1.102536"><ele>1493.0</ele></trkpt><trkpt lat="42.604076" lon="1.103619"><ele>1493.75</ele></trkpt><trkpt lat="42.603921" lon="1.104681"><ele>1497.25</ele></trkpt><trkpt lat="42.603788" lon="1.10516"><ele>1501.0</ele></trkpt><trkpt lat="42.603532" lon="1.105783"><ele>1507.0</ele></trkpt><trkpt lat="42.603144" lon="1.106495"><ele>1509.5</ele></trkpt><trkpt lat="42.602949" lon="1.106839"><ele>1509.5</ele></trkpt><trkpt lat="42.602725" lon="1.107102"><ele>1511.75</ele></trkpt><trkpt lat="42.602439" lon="1.107268"><ele>1516.75</ele></trkpt><trkpt lat="42.601988" lon="1.107488"><ele>1521.25</ele></trkpt><trkpt lat="42.601678" lon="1.107671"><ele>1523.5</ele></trkpt><trkpt lat="42.601518" lon="1.107798"><ele>1520.75</ele></trkpt><trkpt lat="42.601332" lon="1.107833"><ele>1520.0</ele></trkpt><trkpt lat="42.60114" lon="1.107788"><ele>1521.0</ele></trkpt><trkpt lat="42.601009" lon="1.107731"><ele>1522.25</ele></trkpt><trkpt lat="42.600989" lon="1.107711"><ele>1523.5</ele></trkpt><trkpt lat="42.60095" lon="1.107674"><ele>1523.5</ele></trkpt><trkpt lat="42.600908" lon="1.107584"><ele>1525.25</ele></trkpt><trkpt lat="42.600914" lon="1.107444"><ele>1527.75</ele></trkpt><trkpt lat="42.600942" lon="1.107375"><ele>1528.5</ele></trkpt><trkpt lat="42.601001" lon="1.107321"><ele>1529.25</ele></trkpt><trkpt lat="42.601065" lon="1.107286"><ele>1529.75</ele></trkpt><trkpt lat="42.601133" lon="1.107283"><ele>1530.0</ele></trkpt><trkpt lat="42.601288" lon="1.107342"><ele>1529.5</ele></trkpt><trkpt lat="42.601465" lon="1.107309"><ele>1530.25</ele></trkpt><trkpt lat="42.601708" lon="1.107176"><ele>1531.75</ele></trkpt><trkpt lat="42.602025" lon="1.106923"><ele>1531.25</ele></trkpt><trkpt lat="42.602098" lon="1.106798"><ele>1532.5</ele></trkpt><trkpt lat="42.602365" lon="1.10653"><ele>1535.25</ele></trkpt><trkpt lat="42.602638" lon="1.106091"><ele>1538.75</ele></trkpt><trkpt lat="42.602832" lon="1.105635"><ele>1540.75</ele></trkpt><trkpt lat="42.603011" lon="1.105147"><ele>1543.0</ele></trkpt><trkpt lat="42.603127" lon="1.104655"><ele>1545.0</ele></trkpt><trkpt lat="42.60315" lon="1.10426"><ele>1548.0</ele></trkpt><trkpt lat="42.603093" lon="1.103904"><ele>1552.75</ele></trkpt><trkpt lat="42.603101" lon="1.103475"><ele>1554.5</ele></trkpt><trkpt lat="42.603071" lon="1.102962"><ele>1559.25</ele></trkpt><trkpt lat="42.60307" lon="1.102932"><ele>1559.25</ele></trkpt><trkpt lat="42.603093" lon="1.102554"><ele>1560.5</ele></trkpt><trkpt lat="42.603072" lon="1.102333"><ele>1562.5</ele></trkpt><trkpt lat="42.602958" lon="1.101924"><ele>1570.0</ele></trkpt><trkpt lat="42.602953" lon="1.101704"><ele>1571.0</ele></trkpt><trkpt lat="42.602886" lon="1.101322"><ele>1574.75</ele></trkpt><trkpt lat="42.602832" lon="1.101082"><ele>1577.25</ele></trkpt><trkpt lat="42.602838" lon="1.100932"><ele>1577.0</ele></trkpt><trkpt lat="42.60289" lon="1.100736"><ele>1576.0</ele></trkpt><trkpt lat="42.602942" lon="1.100539"><ele>1576.5</ele></trkpt><trkpt lat="42.602968" lon="1.100373"><ele>1577.75</ele></trkpt><trkpt lat="42.602949" lon="1.100289"><ele>1579.5</ele></trkpt><trkpt lat="42.602904" lon="1.100203"><ele>1581.75</ele></trkpt><trkpt lat="42.602861" lon="1.100188"><ele>1584.25</ele></trkpt><trkpt lat="42.602838" lon="1.10018"><ele>1584.25</ele></trkpt><trkpt lat="42.602767" lon="1.1002"><ele>1586.25</ele></trkpt><trkpt lat="42.602717" lon="1.100227"><ele>1587.5</ele></trkpt><trkpt lat="42.602611" lon="1.100365"><ele>1589.5</ele></trkpt><trkpt lat="42.60257" lon="1.100453"><ele>1590.25</ele></trkpt><trkpt lat="42.602528" lon="1.100901"><ele>1589.0</ele></trkpt><trkpt lat="42.602566" lon="1.101454"><ele>1589.75</ele></trkpt><trkpt lat="42.602584" lon="1.102455"><ele>1590.0</ele></trkpt><trkpt lat="42.602548" lon="1.102625"><ele>1591.0</ele></trkpt><trkpt lat="42.602501" lon="1.102749"><ele>1592.5</ele></trkpt><trkpt lat="42.602322" lon="1.103143"><ele>1593.5</ele></trkpt><trkpt lat="42.602307" lon="1.103319"><ele>1591.5</ele></trkpt><trkpt lat="42.602276" lon="1.103423"><ele>1590.75</ele></trkpt><trkpt lat="42.602215" lon="1.103492"><ele>1591.0</ele></trkpt><trkpt lat="42.602134" lon="1.103514"><ele>1592.25</ele></trkpt><trkpt lat="42.602099" lon="1.103503"><ele>1595.0</ele></trkpt><trkpt lat="42.602035" lon="1.103482"><ele>1595.0</ele></trkpt><trkpt lat="42.602001" lon="1.103417"><ele>1596.75</ele></trkpt><trkpt lat="42.601985" lon="1.103334"><ele>1598.5</ele></trkpt><trkpt lat="42.601985" lon="1.10322"><ele>1601.0</ele></trkpt><trkpt lat="42.602002" lon="1.103173"><ele>1601.5</ele></trkpt><trkpt lat="42.60213" lon="1.102976"><ele>1601.5</ele></trkpt><trkpt lat="42.602233" lon="1.102752"><ele>1602.0</ele></trkpt><trkpt lat="42.602309" lon="1.102509"><ele>1602.5</ele></trkpt><trkpt lat="42.602324" lon="1.102392"><ele>1602.25</ele></trkpt><trkpt lat="42.602315" lon="1.102261"><ele>1602.75</ele></trkpt><trkpt lat="42.602143" lon="1.101508"><ele>1611.0</ele></trkpt><trkpt lat="42.60202" lon="1.101304"><ele>1615.75</ele></trkpt><trkpt lat="42.601885" lon="1.100924"><ele>1620.0</ele></trkpt><trkpt lat="42.601828" lon="1.100559"><ele>1623.75</ele></trkpt><trkpt lat="42.601735" lon="1.100142"><ele>1630.75</ele></trkpt><trkpt lat="42.60174" lon="1.100083"><ele>1631.0</ele></trkpt><trkpt lat="42.601766" lon="1.100024"><ele>1630.0</ele></trkpt><trkpt lat="42.601914" lon="1.099754"><ele>1628.0</ele></trkpt><trkpt lat="42.602013" lon="1.099491"><ele>1628.25</ele></trkpt><trkpt lat="42.602041" lon="1.099281"><ele>1630.75</ele></trkpt><trkpt lat="42.602049" lon="1.099048"><ele>1635.25</ele></trkpt><trkpt lat="42.602073" lon="1.098951"><ele>1636.25</ele></trkpt><trkpt lat="42.602115" lon="1.098872"><ele>1636.25</ele></trkpt><trkpt lat="42.602215" lon="1.098627"><ele>1637.25</ele></trkpt><trkpt lat="42.602287" lon="1.098307"><ele>1641.5</ele></trkpt><trkpt lat="42.602407" lon="1.097856"><ele>1645.0</ele></trkpt><trkpt lat="42.602449" lon="1.097767"><ele>1645.0</ele></trkpt><trkpt lat="42.602517" lon="1.097696"><ele>1643.75</ele></trkpt><trkpt lat="42.602743" lon="1.097556"><ele>1640.25</ele></trkpt><trkpt lat="42.602791" lon="1.097502"><ele>1640.25</ele></trkpt><trkpt lat="42.602801" lon="1.097421"><ele>1641.25</ele></trkpt><trkpt lat="42.602793" lon="1.097347"><ele>1642.75</ele></trkpt><trkpt lat="42.602772" lon="1.097276"><ele>1644.5</ele></trkpt><trkpt lat="42.602756" lon="1.097251"><ele>1647.0</ele></trkpt><trkpt lat="42.602727" lon="1.097206"><ele>1647.0</ele></trkpt><trkpt lat="42.602681" lon="1.09719"><ele>1648.5</ele></trkpt><trkpt lat="42.602582" lon="1.097212"><ele>1650.75</ele></trkpt><trkpt lat="42.602548" lon="1.097252"><ele>1651.0</ele></trkpt><trkpt lat="42.602473" lon="1.097375"><ele>1651.25</ele></trkpt><trkpt lat="42.602265" lon="1.097767"><ele>1652.75</ele></trkpt><trkpt lat="42.602023" lon="1.09825"><ele>1654.0</ele></trkpt><trkpt lat="42.601905" lon="1.098417"><ele>1655.75</ele></trkpt><trkpt lat="42.601775" lon="1.09855"><ele>1658.75</ele></trkpt><trkpt lat="42.601655" lon="1.098795"><ele>1659.0</ele></trkpt><trkpt lat="42.601485" lon="1.098986"><ele>1662.75</ele></trkpt><trkpt lat="42.601446" lon="1.09906"><ele>1663.0</ele></trkpt><trkpt lat="42.601427" lon="1.09916"><ele>1661.75</ele></trkpt><trkpt lat="42.601419" lon="1.099298"><ele>1659.25</ele></trkpt><trkpt lat="42.601393" lon="1.099383"><ele>1659.0</ele></trkpt><trkpt lat="42.601365" lon="1.099435"><ele>1659.25</ele></trkpt><trkpt lat="42.601206" lon="1.099623"><ele>1662.5</ele></trkpt><trkpt lat="42.601137" lon="1.099715"><ele>1664.0</ele></trkpt><trkpt lat="42.601084" lon="1.099849"><ele>1663.75</ele></trkpt><trkpt lat="42.600942" lon="1.100259"><ele>1665.0</ele></trkpt><trkpt lat="42.600761" lon="1.100586"><ele>1668.5</ele></trkpt><trkpt lat="42.600623" lon="1.100891"><ele>1667.5</ele></trkpt><trkpt lat="42.600557" lon="1.101005"><ele>1666.25</ele></trkpt><trkpt lat="42.600561" lon="1.101068"><ele>1665.0</ele></trkpt><trkpt lat="42.600479" lon="1.101119"><ele>1665.0</ele></trkpt><trkpt lat="42.600442" lon="1.101137"><ele>1665.25</ele></trkpt><trkpt lat="42.600479" lon="1.101119"><ele>1665.0</ele></trkpt><trkpt lat="42.600561" lon="1.101068"><ele>1665.0</ele></trkpt><trkpt lat="42.600557" lon="1.101005"><ele>1666.25</ele></trkpt><trkpt lat="42.600492" lon="1.101056"><ele>1666.25</ele></trkpt><trkpt lat="42.600405" lon="1.101078"><ele>1667.0</ele></trkpt><trkpt lat="42.600327" lon="1.101068"><ele>1668.0</ele></trkpt><trkpt lat="42.600301" lon="1.101032"><ele>1669.25</ele></trkpt><trkpt lat="42.600283" lon="1.10099"><ele>1670.5</ele></trkpt><trkpt lat="42.60028" lon="1.100889"><ele>1673.0</ele></trkpt><trkpt lat="42.6003" lon="1.100797"><ele>1674.5</ele></trkpt><trkpt lat="42.600325" lon="1.100764"><ele>1674.5</ele></trkpt><trkpt lat="42.600539" lon="1.100639"><ele>1672.25</ele></trkpt><trkpt lat="42.600573" lon="1.100592"><ele>1672.25</ele></trkpt><trkpt lat="42.600732" lon="1.100028"><ele>1674.5</ele></trkpt><trkpt lat="42.600805" lon="1.099826"><ele>1676.0</ele></trkpt><trkpt lat="42.600827" lon="1.099618"><ele>1679.5</ele></trkpt><trkpt lat="42.600799" lon="1.099358"><ele>1685.25</ele></trkpt><trkpt lat="42.600752" lon="1.099122"><ele>1691.75</ele></trkpt><trkpt lat="42.600752" lon="1.098979"><ele>1695.25</ele></trkpt><trkpt lat="42.600816" lon="1.098892"><ele>1695.0</ele></trkpt><trkpt lat="42.600918" lon="1.09878"><ele>1693.25</ele></trkpt><trkpt lat="42.601016" lon="1.098634"><ele>1692.25</ele></trkpt><trkpt lat="42.601068" lon="1.098421"><ele>1694.5</ele></trkpt><trkpt lat="42.601146" lon="1.097698"><ele>1703.25</ele></trkpt><trkpt lat="42.601308" lon="1.097043"><ele>1704.75</ele></trkpt><trkpt lat="42.601487" lon="1.096631"><ele>1703.5</ele></trkpt><trkpt lat="42.601545" lon="1.096444"><ele>1705.75</ele></trkpt><trkpt lat="42.601559" lon="1.096219"><ele>1710.5</ele></trkpt><trkpt lat="42.601622" lon="1.096051"><ele>1712.75</ele></trkpt><trkpt lat="42.601798" lon="1.09562"><ele>1718.75</ele></trkpt><trkpt lat="42.602072" lon="1.095177"><ele>1722.75</ele></trkpt><trkpt lat="42.60238" lon="1.094753"><ele>1724.25</ele></trkpt><trkpt lat="42.602577" lon="1.094463"><ele>1726.5</ele></trkpt><trkpt lat="42.602815" lon="1.094185"><ele>1724.5</ele></trkpt><trkpt lat="42.602938" lon="1.09397"><ele>1724.25</ele></trkpt><trkpt lat="42.603048" lon="1.093489"><ele>1731.5</ele></trkpt><trkpt lat="42.60322" lon="1.093073"><ele>1736.75</ele></trkpt><trkpt lat="42.603394" lon="1.092775"><ele>1742.25</ele></trkpt><trkpt lat="42.603522" lon="1.092558"><ele>1742.25</ele></trkpt><trkpt lat="42.603998" lon="1.091869"><ele>1752.75</ele></trkpt><trkpt lat="42.604149" lon="1.091678"><ele>1756.0</ele></trkpt><trkpt lat="42.604222" lon="1.09163"><ele>1757.0</ele></trkpt><trkpt lat="42.604318" lon="1.091582"><ele>1758.25</ele></trkpt><trkpt lat="42.60464" lon="1.09154"><ele>1758.75</ele></trkpt><trkpt lat="42.604792" lon="1.091536"><ele>1758.5</ele></trkpt><trkpt lat="42.604984" lon="1.091567"><ele>1756.75</ele></trkpt><trkpt lat="42.605313" lon="1.091755"><ele>1754.5</ele></trkpt><trkpt lat="42.605809" lon="1.091917"><ele>1754.5</ele></trkpt><trkpt lat="42.606268" lon="1.091982"><ele>1754.25</ele></trkpt><trkpt lat="42.606416" lon="1.091966"><ele>1755.75</ele></trkpt><trkpt lat="42.606619" lon="1.091992"><ele>1756.0</ele></trkpt><trkpt lat="42.606673" lon="1.091959"><ele>1757.5</ele></trkpt><trkpt lat="42.606695" lon="1.091911"><ele>1759.75</ele></trkpt><trkpt lat="42.606701" lon="1.091899"><ele>1759.75</ele></trkpt><trkpt lat="42.606706" lon="1.091793"><ele>1764.25</ele></trkpt><trkpt lat="42.606648" lon="1.091706"><ele>1768.25</ele></trkpt><trkpt lat="42.606591" lon="1.091667"><ele>1769.5</ele></trkpt><trkpt lat="42.606512" lon="1.091668"><ele>1769.25</ele></trkpt><trkpt lat="42.606393" lon="1.09173"><ele>1766.0</ele></trkpt><trkpt lat="42.606239" lon="1.091783"><ele>1763.0</ele></trkpt><trkpt lat="42.606135" lon="1.091793"><ele>1762.25</ele></trkpt><trkpt lat="42.605552" lon="1.091403"><ele>1773.5</ele></trkpt><trkpt lat="42.604949" lon="1.090863"><ele>1784.5</ele></trkpt><trkpt lat="42.604858" lon="1.090815"><ele>1786.25</ele></trkpt><trkpt lat="42.604758" lon="1.090795"><ele>1786.75</ele></trkpt><trkpt lat="42.604609" lon="1.090819"><ele>1784.75</ele></trkpt><trkpt lat="42.604525" lon="1.090834"><ele>1784.75</ele></trkpt><trkpt lat="42.604233" lon="1.090744"><ele>1787.0</ele></trkpt><trkpt lat="42.603958" lon="1.09073"><ele>1790.5</ele></trkpt><trkpt lat="42.603857" lon="1.090749"><ele>1791.5</ele></trkpt><trkpt lat="42.603774" lon="1.090783"><ele>1792.0</ele></trkpt><trkpt lat="42.603673" lon="1.090863"><ele>1791.5</ele></trkpt><trkpt lat="42.603572" lon="1.091002"><ele>1789.75</ele></trkpt><trkpt lat="42.603485" lon="1.091096"><ele>1789.25</ele></trkpt><trkpt lat="42.603178" lon="1.091355"><ele>1790.5</ele></trkpt><trkpt lat="42.602722" lon="1.091629"><ele>1794.25</ele></trkpt><trkpt lat="42.602557" lon="1.091673"><ele>1796.5</ele></trkpt><trkpt lat="42.602347" lon="1.091708"><ele>1798.75</ele></trkpt><trkpt lat="42.602132" lon="1.091808"><ele>1798.5</ele></trkpt><trkpt lat="42.602021" lon="1.091838"><ele>1799.0</ele></trkpt><trkpt lat="42.601897" lon="1.091833"><ele>1800.5</ele></trkpt><trkpt lat="42.601833" lon="1.091809"><ele>1807.75</ele></trkpt><trkpt lat="42.601531" lon="1.091696"><ele>1807.75</ele></trkpt><trkpt lat="42.601157" lon="1.09163"><ele>1811.75</ele></trkpt><trkpt lat="42.60094" lon="1.091423"><ele>1817.25</ele></trkpt><trkpt lat="42.600679" lon="1.09129"><ele>1824.25</ele></trkpt><trkpt lat="42.600615" lon="1.091272"><ele>1826.0</ele></trkpt><trkpt lat="42.600568" lon="1.091275"><ele>1827.0</ele></trkpt><trkpt lat="42.600368" lon="1.091391"><ele>1829.0</ele></trkpt><trkpt lat="42.600309" lon="1.09141"><ele>1829.75</ele></trkpt><trkpt lat="42.600187" lon="1.091431"><ele>1832.0</ele></trkpt><trkpt lat="42.600126" lon="1.091467"><ele>1832.5</ele></trkpt><trkpt lat="42.600086" lon="1.09152"><ele>1832.0</ele></trkpt><trkpt lat="42.600065" lon="1.091611"><ele>1830.0</ele></trkpt><trkpt lat="42.600052" lon="1.091773"><ele>1826.5</ele></trkpt><trkpt lat="42.600034" lon="1.091845"><ele>1825.0</ele></trkpt><trkpt lat="42.599956" lon="1.091968"><ele>1823.75</ele></trkpt><trkpt lat="42.59987" lon="1.092045"><ele>1823.75</ele></trkpt><trkpt lat="42.599709" lon="1.092146"><ele>1824.5</ele></trkpt><trkpt lat="42.5996" lon="1.09218"><ele>1826.0</ele></trkpt><trkpt lat="42.599521" lon="1.09218"><ele>1827.5</ele></trkpt><trkpt lat="42.599451" lon="1.092154"><ele>1829.5</ele></trkpt><trkpt lat="42.599202" lon="1.091982"><ele>1837.75</ele></trkpt><trkpt lat="42.599105" lon="1.091895"><ele>1842.75</ele></trkpt><trkpt lat="42.599053" lon="1.091874"><ele>1845.25</ele></trkpt><trkpt lat="42.598996" lon="1.091869"><ele>1848.5</ele></trkpt><trkpt lat="42.598972" lon="1.091867"><ele>1848.5</ele></trkpt><trkpt lat="42.59891" lon="1.091873"><ele>1850.75</ele></trkpt><trkpt lat="42.598867" lon="1.091925"><ele>1851.5</ele></trkpt><trkpt lat="42.598789" lon="1.092125"><ele>1850.0</ele></trkpt><trkpt lat="42.598695" lon="1.092241"><ele>1850.75</ele></trkpt><trkpt lat="42.598539" lon="1.092355"><ele>1854.0</ele></trkpt><trkpt lat="42.598493" lon="1.092448"><ele>1853.5</ele></trkpt><trkpt lat="42.59842" lon="1.092746"><ele>1849.5</ele></trkpt><trkpt lat="42.598346" lon="1.092901"><ele>1848.75</ele></trkpt><trkpt lat="42.598312" lon="1.092936"><ele>1849.5</ele></trkpt><trkpt lat="42.598271" lon="1.092954"><ele>1850.75</ele></trkpt><trkpt lat="42.598252" lon="1.092954"><ele>1853.25</ele></trkpt><trkpt lat="42.598214" lon="1.092955"><ele>1853.25</ele></trkpt><trkpt lat="42.598186" lon="1.092919"><ele>1855.25</ele></trkpt><trkpt lat="42.598167" lon="1.092874"><ele>1857.25</ele></trkpt><trkpt lat="42.598157" lon="1.0928"><ele>1859.25</ele></trkpt><trkpt lat="42.598162" lon="1.092726"><ele>1860.75</ele></trkpt><trkpt lat="42.598284" lon="1.092428"><ele>1862.0</ele></trkpt><trkpt lat="42.598557" lon="1.091889"><ele>1864.5</ele></trkpt><trkpt lat="42.598752" lon="1.091096"><ele>1876.5</ele></trkpt><trkpt lat="42.598803" lon="1.090917"><ele>1879.0</ele></trkpt><trkpt lat="42.598919" lon="1.090772"><ele>1878.0</ele></trkpt><trkpt lat="42.599095" lon="1.090707"><ele>1872.5</ele></trkpt><trkpt lat="42.599287" lon="1.090682"><ele>1868.25</ele></trkpt><trkpt lat="42.599392" lon="1.09069"><ele>1866.25</ele></trkpt><trkpt lat="42.599514" lon="1.090628"><ele>1866.0</ele></trkpt><trkpt lat="42.599629" lon="1.090474"><ele>1868.75</ele></trkpt><trkpt lat="42.599782" lon="1.090303"><ele>1871.25</ele></trkpt><trkpt lat="42.599959" lon="1.089929"><ele>1878.75</ele></trkpt><trkpt lat="42.600087" lon="1.089533"><ele>1883.0</ele></trkpt><trkpt lat="42.600127" lon="1.089258"><ele>1887.25</ele></trkpt><trkpt lat="42.60012" lon="1.089062"><ele>1891.0</ele></trkpt><trkpt lat="42.600183" lon="1.088876"><ele>1893.0</ele></trkpt><trkpt lat="42.600382" lon="1.088522"><ele>1896.0</ele></trkpt><trkpt lat="42.600573" lon="1.088205"><ele>1899.75</ele></trkpt><trkpt lat="42.600722" lon="1.087883"><ele>1905.75</ele></trkpt><trkpt lat="42.600783" lon="1.087824"><ele>1906.25</ele></trkpt><trkpt lat="42.600969" lon="1.087826"><ele>1904.0</ele></trkpt><trkpt lat="42.60106" lon="1.087839"><ele>1902.0</ele></trkpt><trkpt lat="42.601113" lon="1.087847"><ele>1902.0</ele></trkpt><trkpt lat="42.601193" lon="1.087796"><ele>1902.25</ele></trkpt><trkpt lat="42.601253" lon="1.087712"><ele>1903.75</ele></trkpt><trkpt lat="42.601347" lon="1.087546"><ele>1906.75</ele></trkpt><trkpt lat="42.601456" lon="1.087467"><ele>1907.5</ele></trkpt><trkpt lat="42.601548" lon="1.087332"><ele>1910.25</ele></trkpt><trkpt lat="42.60166" lon="1.08713"><ele>1914.75</ele></trkpt><trkpt lat="42.601698" lon="1.087085"><ele>1915.25</ele></trkpt><trkpt lat="42.601936" lon="1.086974"><ele>1915.0</ele></trkpt><trkpt lat="42.602149" lon="1.08682"><ele>1916.5</ele></trkpt><trkpt lat="42.602402" lon="1.086637"><ele>1918.0</ele></trkpt><trkpt lat="42.602714" lon="1.086511"><ele>1918.75</ele></trkpt><trkpt lat="42.602905" lon="1.086407"><ele>1920.25</ele></trkpt><trkpt lat="42.603128" lon="1.08634"><ele>1920.0</ele></trkpt><trkpt lat="42.603208" lon="1.086262"><ele>1921.5</ele></trkpt><trkpt lat="42.603245" lon="1.086228"><ele>1921.5</ele></trkpt><trkpt lat="42.603288" lon="1.086073"><ele>1924.5</ele></trkpt><trkpt lat="42.603341" lon="1.085637"><ele>1930.5</ele></trkpt><trkpt lat="42.603363" lon="1.085094"><ele>1934.5</ele></trkpt><trkpt lat="42.603334" lon="1.084784"><ele>1937.5</ele></trkpt><trkpt lat="42.603326" lon="1.084427"><ele>1940.25</ele></trkpt><trkpt lat="42.603292" lon="1.084212"><ele>1942.5</ele></trkpt><trkpt lat="42.603227" lon="1.083937"><ele>1944.75</ele></trkpt><trkpt lat="42.603125" lon="1.083618"><ele>1947.5</ele></trkpt><trkpt lat="42.60309" lon="1.083562"><ele>1950.25</ele></trkpt><trkpt lat="42.603021" lon="1.083452"><ele>1950.25</ele></trkpt><trkpt lat="42.602931" lon="1.083218"><ele>1952.25</ele></trkpt><trkpt lat="42.602831" lon="1.082882"><ele>1953.75</ele></trkpt><trkpt lat="42.602655" lon="1.082124"><ele>1957.0</ele></trkpt><trkpt lat="42.60262" lon="1.082115"><ele>1958.0</ele></trkpt><trkpt lat="42.60257" lon="1.082047"><ele>1959.25</ele></trkpt><trkpt lat="42.602502" lon="1.081926"><ele>1961.25</ele></trkpt><trkpt lat="42.602462" lon="1.081782"><ele>1962.25</ele></trkpt><trkpt lat="42.602446" lon="1.081529"><ele>1963.5</ele></trkpt><trkpt lat="42.602421" lon="1.081308"><ele>1965.75</ele></trkpt><trkpt lat="42.602371" lon="1.081115"><ele>1968.5</ele></trkpt><trkpt lat="42.602373" lon="1.080841"><ele>1970.0</ele></trkpt><trkpt lat="42.602444" lon="1.080384"><ele>1970.5</ele></trkpt><trkpt lat="42.60249" lon="1.079493"><ele>1975.5</ele></trkpt><trkpt lat="42.60249" lon="1.079282"><ele>1977.25</ele></trkpt><trkpt lat="42.602399" lon="1.078836"><ele>1981.0</ele></trkpt><trkpt lat="42.602262" lon="1.077991"><ele>1985.25</ele></trkpt><trkpt lat="42.602241" lon="1.077713"><ele>1985.5</ele></trkpt><trkpt lat="42.602088" lon="1.077241"><ele>1988.5</ele></trkpt><trkpt lat="42.602016" lon="1.07702"><ele>1988.5</ele></trkpt><trkpt lat="42.601934" lon="1.07679"><ele>1988.75</ele></trkpt><trkpt lat="42.601784" lon="1.076549"><ele>1988.5</ele></trkpt><trkpt lat="42.601715" lon="1.076488"><ele>1988.5</ele></trkpt><trkpt lat="42.601632" lon="1.076429"><ele>1989.0</ele></trkpt><trkpt lat="42.601445" lon="1.076346"><ele>1990.75</ele></trkpt><trkpt lat="42.601275" lon="1.076177"><ele>1989.75</ele></trkpt><trkpt lat="42.600896" lon="1.075956"><ele>1990.5</ele></trkpt><trkpt lat="42.600135" lon="1.075795"><ele>1996.5</ele></trkpt><trkpt lat="42.599898" lon="1.075662"><ele>1996.25</ele></trkpt><trkpt lat="42.599661" lon="1.075466"><ele>1995.25</ele></trkpt><trkpt lat="42.598711" lon="1.075018"><ele>2009.75</ele></trkpt><trkpt lat="42.598555" lon="1.074908"><ele>2013.25</ele></trkpt><trkpt lat="42.598491" lon="1.074746"><ele>2012.75</ele></trkpt><trkpt lat="42.598208" lon="1.074144"><ele>2013.0</ele></trkpt><trkpt lat="42.597957" lon="1.073858"><ele>2016.5</ele></trkpt><trkpt lat="42.59765" lon="1.073484"><ele>2018.25</ele></trkpt><trkpt lat="42.597506" lon="1.072969"><ele>2014.0</ele></trkpt><trkpt lat="42.597438" lon="1.073"><ele>2016.25</ele></trkpt><trkpt lat="42.597506" lon="1.072969"><ele>2014.0</ele></trkpt><trkpt lat="42.59765" lon="1.073484"><ele>2018.25</ele></trkpt><trkpt lat="42.597957" lon="1.073858"><ele>2016.5</ele></trkpt><trkpt lat="42.598208" lon="1.074144"><ele>2013.0</ele></trkpt><trkpt lat="42.598491" lon="1.074746"><ele>2012.75</ele></trkpt><trkpt lat="42.598555" lon="1.074908"><ele>2013.25</ele></trkpt><trkpt lat="42.598711" lon="1.075018"><ele>2009.75</ele></trkpt><trkpt lat="42.599661" lon="1.075466"><ele>1995.25</ele></trkpt><trkpt lat="42.599898" lon="1.075662"><ele>1996.25</ele></trkpt><trkpt lat="42.600135" lon="1.075795"><ele>1996.5</ele></trkpt><trkpt lat="42.600896" lon="1.075956"><ele>1990.5</ele></trkpt><trkpt lat="42.601275" lon="1.076177"><ele>1989.75</ele></trkpt><trkpt lat="42.601445" lon="1.076346"><ele>1990.75</ele></trkpt><trkpt lat="42.601632" lon="1.076429"><ele>1989.0</ele></trkpt><trkpt lat="42.601715" lon="1.076488"><ele>1988.5</ele></trkpt><trkpt lat="42.601784" lon="1.076549"><ele>1988.5</ele></trkpt><trkpt lat="42.601934" lon="1.07679"><ele>1988.75</ele></trkpt><trkpt lat="42.602016" lon="1.07702"><ele>1988.5</ele></trkpt><trkpt lat="42.602241" lon="1.077713"><ele>1985.5</ele></trkpt><trkpt lat="42.602262" lon="1.077991"><ele>1985.25</ele></trkpt><trkpt lat="42.602399" lon="1.078836"><ele>1981.0</ele></trkpt><trkpt lat="42.60249" lon="1.079282"><ele>1977.25</ele></trkpt><trkpt lat="42.60249" lon="1.079493"><ele>1975.5</ele></trkpt><trkpt lat="42.602444" lon="1.080384"><ele>1970.5</ele></trkpt><trkpt lat="42.602373" lon="1.080841"><ele>1970.0</ele></trkpt><trkpt lat="42.602371" lon="1.081115"><ele>1968.5</ele></trkpt><trkpt lat="42.602421" lon="1.081308"><ele>1965.75</ele></trkpt><trkpt lat="42.602446" lon="1.081529"><ele>1963.5</ele></trkpt><trkpt lat="42.602462" lon="1.081782"><ele>1962.25</ele></trkpt><trkpt lat="42.602502" lon="1.081926"><ele>1961.25</ele></trkpt><trkpt lat="42.60257" lon="1.082047"><ele>1959.25</ele></trkpt><trkpt lat="42.60262" lon="1.082115"><ele>1958.0</ele></trkpt><trkpt lat="42.602655" lon="1.082124"><ele>1957.0</ele></trkpt><trkpt lat="42.60268" lon="1.082096"><ele>1956.25</ele></trkpt><trkpt lat="42.602689" lon="1.082059"><ele>1956.0</ele></trkpt><trkpt lat="42.602657" lon="1.081692"><ele>1956.5</ele></trkpt><trkpt lat="42.602724" lon="1.081439"><ele>1955.25</ele></trkpt><trkpt lat="42.602846" lon="1.080988"><ele>1955.25</ele></trkpt><trkpt lat="42.603465" lon="1.079361"><ele>1949.25</ele></trkpt><trkpt lat="42.603564" lon="1.079034"><ele>1946.75</ele></trkpt><trkpt lat="42.603649" lon="1.07863"><ele>1944.0</ele></trkpt><trkpt lat="42.603679" lon="1.078431"><ele>1943.25</ele></trkpt><trkpt lat="42.603703" lon="1.078214"><ele>1941.75</ele></trkpt><trkpt lat="42.603623" lon="1.077376"><ele>1940.25</ele></trkpt><trkpt lat="42.603707" lon="1.075475"><ele>1920.75</ele></trkpt><trkpt lat="42.603674" lon="1.07533"><ele>1919.5</ele></trkpt><trkpt lat="42.603651" lon="1.075273"><ele>1918.75</ele></trkpt><trkpt lat="42.603617" lon="1.075184"><ele>1918.75</ele></trkpt><trkpt lat="42.603476" lon="1.074962"><ele>1917.0</ele></trkpt><trkpt lat="42.603376" lon="1.074874"><ele>1915.75</ele></trkpt><trkpt lat="42.603052" lon="1.074697"><ele>1913.25</ele></trkpt><trkpt lat="42.602298" lon="1.074391"><ele>1909.0</ele></trkpt><trkpt lat="42.601815" lon="1.074132"><ele>1902.5</ele></trkpt><trkpt lat="42.601148" lon="1.073679"><ele>1900.25</ele></trkpt><trkpt lat="42.600995" lon="1.073619"><ele>1902.0</ele></trkpt><trkpt lat="42.600851" lon="1.073533"><ele>1903.0</ele></trkpt><trkpt lat="42.600706" lon="1.073353"><ele>1903.25</ele></trkpt><trkpt lat="42.600637" lon="1.073198"><ele>1905.25</ele></trkpt><trkpt lat="42.600606" lon="1.073005"><ele>1906.0</ele></trkpt><trkpt lat="42.600617" lon="1.072807"><ele>1905.0</ele></trkpt><trkpt lat="42.600635" lon="1.072627"><ele>1904.0</ele></trkpt><trkpt lat="42.600814" lon="1.071812"><ele>1901.5</ele></trkpt><trkpt lat="42.600929" lon="1.071389"><ele>1900.75</ele></trkpt><trkpt lat="42.601069" lon="1.070949"><ele>1900.25</ele></trkpt><trkpt lat="42.601232" lon="1.070701"><ele>1896.5</ele></trkpt><trkpt lat="42.601409" lon="1.070497"><ele>1893.0</ele></trkpt><trkpt lat="42.601596" lon="1.070306"><ele>1890.5</ele></trkpt><trkpt lat="42.601887" lon="1.07007"><ele>1886.75</ele></trkpt><trkpt lat="42.601931" lon="1.070012"><ele>1886.75</ele></trkpt><trkpt lat="42.601962" lon="1.069948"><ele>1886.0</ele></trkpt><trkpt lat="42.601992" lon="1.069855"><ele>1885.5</ele></trkpt><trkpt lat="42.602005" lon="1.069677"><ele>1885.25</ele></trkpt><trkpt lat="42.601989" lon="1.069414"><ele>1886.75</ele></trkpt><trkpt lat="42.601979" lon="1.069229"><ele>1886.75</ele></trkpt><trkpt lat="42.60195" lon="1.069095"><ele>1886.5</ele></trkpt><trkpt lat="42.601893" lon="1.068951"><ele>1886.0</ele></trkpt><trkpt lat="42.601797" lon="1.068835"><ele>1886.25</ele></trkpt><trkpt lat="42.601697" lon="1.06868"><ele>1886.0</ele></trkpt><trkpt lat="42.60138" lon="1.068156"><ele>1882.5</ele></trkpt><trkpt lat="42.601213" lon="1.067785"><ele>1880.5</ele></trkpt><trkpt lat="42.601127" lon="1.067671"><ele>1880.5</ele></trkpt><trkpt lat="42.601037" lon="1.067567"><ele>1880.5</ele></trkpt><trkpt lat="42.600975" lon="1.067528"><ele>1880.75</ele></trkpt><trkpt lat="42.600943" lon="1.067493"><ele>1880.75</ele></trkpt><trkpt lat="42.600922" lon="1.067462"><ele>1881.75</ele></trkpt><trkpt lat="42.600865" lon="1.067378"><ele>1881.75</ele></trkpt><trkpt lat="42.600811" lon="1.067217"><ele>1882.75</ele></trkpt><trkpt lat="42.600775" lon="1.067029"><ele>1883.75</ele></trkpt><trkpt lat="42.600775" lon="1.066858"><ele>1884.25</ele></trkpt><trkpt lat="42.60077" lon="1.066835"><ele>1887.25</ele></trkpt><trkpt lat="42.600775" lon="1.066858"><ele>1884.25</ele></trkpt><trkpt lat="42.600808" lon="1.066725"><ele>1884.0</ele></trkpt><trkpt lat="42.600878" lon="1.066596"><ele>1884.25</ele></trkpt><trkpt lat="42.601539" lon="1.065989"><ele>1885.25</ele></trkpt><trkpt lat="42.601676" lon="1.065805"><ele>1886.0</ele></trkpt><trkpt lat="42.601816" lon="1.065419"><ele>1888.0</ele></trkpt><trkpt lat="42.601866" lon="1.065188"><ele>1889.25</ele></trkpt><trkpt lat="42.601916" lon="1.064877"><ele>1892.25</ele></trkpt><trkpt lat="42.601966" lon="1.064745"><ele>1893.5</ele></trkpt><trkpt lat="42.6022" lon="1.064339"><ele>1894.75</ele></trkpt><trkpt lat="42.602388" lon="1.064173"><ele>1892.5</ele></trkpt><trkpt lat="42.602458" lon="1.064121"><ele>1892.0</ele></trkpt><trkpt lat="42.602498" lon="1.064111"><ele>1891.25</ele></trkpt><trkpt lat="42.602543" lon="1.0641"><ele>1891.25</ele></trkpt><trkpt lat="42.602661" lon="1.064136"><ele>1890.0</ele></trkpt><trkpt lat="42.602765" lon="1.064213"><ele>1888.25</ele></trkpt><trkpt lat="42.60283" lon="1.064299"><ele>1887.0</ele></trkpt><trkpt lat="42.602878" lon="1.064389"><ele>1885.5</ele></trkpt><trkpt lat="42.602949" lon="1.064572"><ele>1882.75</ele></trkpt><trkpt lat="42.60299" lon="1.064632"><ele>1881.25</ele></trkpt><trkpt lat="42.603006" lon="1.064654"><ele>1881.25</ele></trkpt><trkpt lat="42.60307" lon="1.064675"><ele>1880.75</ele></trkpt><trkpt lat="42.603131" lon="1.06466"><ele>1880.75</ele></trkpt><trkpt lat="42.6032" lon="1.064636"><ele>1880.75</ele></trkpt><trkpt lat="42.603355" lon="1.064533"><ele>1881.0</ele></trkpt><trkpt lat="42.603489" lon="1.064395"><ele>1880.0</ele></trkpt><trkpt lat="42.603729" lon="1.064193"><ele>1877.5</ele></trkpt><trkpt lat="42.603941" lon="1.063968"><ele>1876.5</ele></trkpt><trkpt lat="42.604088" lon="1.063889"><ele>1874.5</ele></trkpt><trkpt lat="42.604235" lon="1.063781"><ele>1874.75</ele></trkpt><trkpt lat="42.604445" lon="1.06359"><ele>1878.0</ele></trkpt><trkpt lat="42.604534" lon="1.063538"><ele>1879.0</ele></trkpt><trkpt lat="42.604534" lon="1.063537"><ele>1879.0</ele></trkpt><trkpt lat="42.604543" lon="1.063533"><ele>1879.0</ele></trkpt><trkpt lat="42.604607" lon="1.063555"><ele>1878.5</ele></trkpt><trkpt lat="42.604645" lon="1.063595"><ele>1877.75</ele></trkpt><trkpt lat="42.604761" lon="1.063797"><ele>1873.75</ele></trkpt><trkpt lat="42.605192" lon="1.064427"><ele>1861.75</ele></trkpt><trkpt lat="42.605397" lon="1.06466"><ele>1858.0</ele></trkpt><trkpt lat="42.605531" lon="1.064767"><ele>1856.5</ele></trkpt><trkpt lat="42.605553" lon="1.064772"><ele>1856.5</ele></trkpt><trkpt lat="42.605614" lon="1.064789"><ele>1856.5</ele></trkpt><trkpt lat="42.605684" lon="1.064761"><ele>1857.5</ele></trkpt><trkpt lat="42.605761" lon="1.064665"><ele>1860.5</ele></trkpt><trkpt lat="42.605888" lon="1.064435"><ele>1867.0</ele></trkpt><trkpt lat="42.605916" lon="1.064412"><ele>1867.75</ele></trkpt><trkpt lat="42.605961" lon="1.064404"><ele>1868.25</ele></trkpt><trkpt lat="42.605981" lon="1.064416"><ele>1868.0</ele></trkpt><trkpt lat="42.606002" lon="1.06443"><ele>1868.0</ele></trkpt><trkpt lat="42.606034" lon="1.064475"><ele>1867.25</ele></trkpt><trkpt lat="42.606223" lon="1.064896"><ele>1858.0</ele></trkpt><trkpt lat="42.606264" lon="1.064941"><ele>1857.0</ele></trkpt><trkpt lat="42.606307" lon="1.064973"><ele>1856.5</ele></trkpt><trkpt lat="42.60635" lon="1.064994"><ele>1856.25</ele></trkpt><trkpt lat="42.606395" lon="1.065"><ele>1856.25</ele></trkpt><trkpt lat="42.606493" lon="1.064967"><ele>1857.75</ele></trkpt><trkpt lat="42.606553" lon="1.064905"><ele>1861.0</ele></trkpt><trkpt lat="42.606591" lon="1.064867"><ele>1861.0</ele></trkpt><trkpt lat="42.606785" lon="1.064617"><ele>1865.5</ele></trkpt><trkpt lat="42.60787" lon="1.063098"><ele>1889.0</ele></trkpt><trkpt lat="42.607942" lon="1.063028"><ele>1890.5</ele></trkpt><trkpt lat="42.608006" lon="1.062997"><ele>1890.75</ele></trkpt><trkpt lat="42.608029" lon="1.062995"><ele>1890.0</ele></trkpt><trkpt lat="42.608081" lon="1.062993"><ele>1890.0</ele></trkpt><trkpt lat="42.608157" lon="1.06301"><ele>1888.75</ele></trkpt><trkpt lat="42.608229" lon="1.063035"><ele>1887.5</ele></trkpt><trkpt lat="42.608337" lon="1.063111"><ele>1884.5</ele></trkpt><trkpt lat="42.608447" lon="1.063227"><ele>1884.25</ele></trkpt><trkpt lat="42.608597" lon="1.063472"><ele>1882.0</ele></trkpt><trkpt lat="42.608648" lon="1.063505"><ele>1882.5</ele></trkpt><trkpt lat="42.608712" lon="1.063525"><ele>1883.75</ele></trkpt><trkpt lat="42.608905" lon="1.063524"><ele>1888.75</ele></trkpt><trkpt lat="42.60896" lon="1.063537"><ele>1889.75</ele></trkpt><trkpt lat="42.608994" lon="1.063568"><ele>1890.0</ele></trkpt><trkpt lat="42.609234" lon="1.063873"><ele>1890.0</ele></trkpt><trkpt lat="42.609317" lon="1.063993"><ele>1889.5</ele></trkpt><trkpt lat="42.609368" lon="1.06411"><ele>1888.25</ele></trkpt><trkpt lat="42.609424" lon="1.064177"><ele>1887.75</ele></trkpt><trkpt lat="42.609497" lon="1.06421"><ele>1888.25</ele></trkpt><trkpt lat="42.609597" lon="1.064222"><ele>1890.0</ele></trkpt><trkpt lat="42.609708" lon="1.064198"><ele>1893.0</ele></trkpt><trkpt lat="42.609809" lon="1.064193"><ele>1895.25</ele></trkpt><trkpt lat="42.610012" lon="1.064216"><ele>1898.25</ele></trkpt><trkpt lat="42.610206" lon="1.064255"><ele>1898.5</ele></trkpt><trkpt lat="42.610452" lon="1.064293"><ele>1899.0</ele></trkpt><trkpt lat="42.610702" lon="1.064349"><ele>1899.0</ele></trkpt><trkpt lat="42.610975" lon="1.064355"><ele>1899.25</ele></trkpt><trkpt lat="42.611143" lon="1.064314"><ele>1899.75</ele></trkpt><trkpt lat="42.61153" lon="1.064072"><ele>1902.75</ele></trkpt><trkpt lat="42.611622" lon="1.063997"><ele>1903.0</ele></trkpt><trkpt lat="42.611703" lon="1.063891"><ele>1903.5</ele></trkpt><trkpt lat="42.611924" lon="1.063505"><ele>1905.75</ele></trkpt><trkpt lat="42.612051" lon="1.063323"><ele>1906.5</ele></trkpt><trkpt lat="42.612088" lon="1.063271"><ele>1906.5</ele></trkpt><trkpt lat="42.612171" lon="1.06313"><ele>1906.25</ele></trkpt><trkpt lat="42.612194" lon="1.063058"><ele>1906.25</ele></trkpt><trkpt lat="42.612208" lon="1.06298"><ele>1906.25</ele></trkpt><trkpt lat="42.612197" lon="1.062849"><ele>1907.0</ele></trkpt><trkpt lat="42.612204" lon="1.062723"><ele>1907.25</ele></trkpt><trkpt lat="42.612262" lon="1.062558"><ele>1906.75</ele></trkpt><trkpt lat="42.612378" lon="1.062331"><ele>1906.75</ele></trkpt><trkpt lat="42.61282" lon="1.061696"><ele>1902.5</ele></trkpt><trkpt lat="42.613122" lon="1.06131"><ele>1898.25</ele></trkpt><trkpt lat="42.613407" lon="1.060914"><ele>1892.75</ele></trkpt><trkpt lat="42.613458" lon="1.060873"><ele>1892.0</ele></trkpt><trkpt lat="42.613526" lon="1.06085"><ele>1890.5</ele></trkpt><trkpt lat="42.613572" lon="1.060816"><ele>1890.0</ele></trkpt><trkpt lat="42.61367" lon="1.06067"><ele>1889.75</ele></trkpt><trkpt lat="42.613768" lon="1.06048"><ele>1890.0</ele></trkpt><trkpt lat="42.613949" lon="1.059961"><ele>1891.25</ele></trkpt><trkpt lat="42.613997" lon="1.059879"><ele>1890.75</ele></trkpt><trkpt lat="42.61403" lon="1.059858"><ele>1890.0</ele></trkpt><trkpt lat="42.61408" lon="1.059855"><ele>1888.5</ele></trkpt><trkpt lat="42.614107" lon="1.059831"><ele>1888.0</ele></trkpt><trkpt lat="42.614242" lon="1.05965"><ele>1885.75</ele></trkpt><trkpt lat="42.61435" lon="1.059408"><ele>1884.5</ele></trkpt><trkpt lat="42.614447" lon="1.059121"><ele>1884.25</ele></trkpt><trkpt lat="42.614485" lon="1.058982"><ele>1884.25</ele></trkpt><trkpt lat="42.614503" lon="1.058819"><ele>1885.0</ele></trkpt><trkpt lat="42.614718" lon="1.058099"><ele>1885.25</ele></trkpt><trkpt lat="42.614809" lon="1.057869"><ele>1884.75</ele></trkpt><trkpt lat="42.614942" lon="1.057627"><ele>1883.25</ele></trkpt><trkpt lat="42.615043" lon="1.057499"><ele>1882.25</ele></trkpt><trkpt lat="42.615079" lon="1.057428"><ele>1883.5</ele></trkpt><trkpt lat="42.615096" lon="1.057352"><ele>1885.25</ele></trkpt><trkpt lat="42.615118" lon="1.05714"><ele>1890.5</ele></trkpt><trkpt lat="42.615153" lon="1.05706"><ele>1892.25</ele></trkpt><trkpt lat="42.615156" lon="1.057056"><ele>1892.25</ele></trkpt><trkpt lat="42.615186" lon="1.057023"><ele>1892.75</ele></trkpt><trkpt lat="42.615244" lon="1.056987"><ele>1892.75</ele></trkpt><trkpt lat="42.615319" lon="1.056995"><ele>1891.5</ele></trkpt><trkpt lat="42.615556" lon="1.057053"><ele>1886.0</ele></trkpt><trkpt lat="42.615668" lon="1.05707"><ele>1883.75</ele></trkpt><trkpt lat="42.616089" lon="1.056969"><ele>1879.75</ele></trkpt><trkpt lat="42.616304" lon="1.056882"><ele>1877.5</ele></trkpt><trkpt lat="42.616492" lon="1.056733"><ele>1876.75</ele></trkpt><trkpt lat="42.616576" lon="1.056639"><ele>1876.75</ele></trkpt><trkpt lat="42.616656" lon="1.056513"><ele>1878.0</ele></trkpt><trkpt lat="42.616732" lon="1.056353"><ele>1880.5</ele></trkpt><trkpt lat="42.616794" lon="1.056262"><ele>1881.5</ele></trkpt><trkpt lat="42.616958" lon="1.056099"><ele>1882.0</ele></trkpt><trkpt lat="42.617145" lon="1.055859"><ele>1884.0</ele></trkpt><trkpt lat="42.617209" lon="1.055814"><ele>1883.75</ele></trkpt><trkpt lat="42.617466" lon="1.055823"><ele>1878.0</ele></trkpt><trkpt lat="42.617536" lon="1.055814"><ele>1878.0</ele></trkpt><trkpt lat="42.617608" lon="1.055792"><ele>1880.0</ele></trkpt><trkpt lat="42.617712" lon="1.055783"><ele>1882.0</ele></trkpt><trkpt lat="42.617778" lon="1.055827"><ele>1882.0</ele></trkpt><trkpt lat="42.61783" lon="1.055898"><ele>1881.25</ele></trkpt><trkpt lat="42.617932" lon="1.056062"><ele>1879.5</ele></trkpt><trkpt lat="42.618144" lon="1.056376"><ele>1877.0</ele></trkpt><trkpt lat="42.618339" lon="1.056531"><ele>1877.75</ele></trkpt><trkpt lat="42.618286" lon="1.056429"><ele>1880.5</ele></trkpt><trkpt lat="42.618339" lon="1.056531"><ele>1877.75</ele></trkpt><trkpt lat="42.618366" lon="1.056552"><ele>1878.5</ele></trkpt><trkpt lat="42.618416" lon="1.05667"><ele>1878.0</ele></trkpt><trkpt lat="42.618526" lon="1.057193"><ele>1870.5</ele></trkpt><trkpt lat="42.61858" lon="1.057389"><ele>1868.25</ele></trkpt><trkpt lat="42.618602" lon="1.057553"><ele>1865.5</ele></trkpt><trkpt lat="42.618666" lon="1.05775"><ele>1863.5</ele></trkpt><trkpt lat="42.619082" lon="1.058495"><ele>1862.75</ele></trkpt><trkpt lat="42.619144" lon="1.058663"><ele>1862.0</ele></trkpt><trkpt lat="42.61942" lon="1.059868"><ele>1854.0</ele></trkpt><trkpt lat="42.61947" lon="1.060152"><ele>1851.5</ele></trkpt><trkpt lat="42.619488" lon="1.060405"><ele>1847.75</ele></trkpt><trkpt lat="42.619458" lon="1.061494"><ele>1827.5</ele></trkpt><trkpt lat="42.619473" lon="1.061639"><ele>1825.5</ele></trkpt><trkpt lat="42.619494" lon="1.06177"><ele>1824.0</ele></trkpt><trkpt lat="42.61954" lon="1.061852"><ele>1824.0</ele></trkpt><trkpt lat="42.619586" lon="1.061898"><ele>1824.25</ele></trkpt><trkpt lat="42.6196" lon="1.061911"><ele>1824.25</ele></trkpt><trkpt lat="42.619707" lon="1.061956"><ele>1826.0</ele></trkpt><trkpt lat="42.619815" lon="1.061983"><ele>1827.75</ele></trkpt><trkpt lat="42.620839" lon="1.061476"><ele>1833.0</ele></trkpt><trkpt lat="42.621232" lon="1.061305"><ele>1833.25</ele></trkpt><trkpt lat="42.621584" lon="1.061254"><ele>1830.0</ele></trkpt><trkpt lat="42.621676" lon="1.061259"><ele>1828.5</ele></trkpt><trkpt lat="42.621735" lon="1.061279"><ele>1827.75</ele></trkpt><trkpt lat="42.621799" lon="1.061318"><ele>1826.25</ele></trkpt><trkpt lat="42.621892" lon="1.061434"><ele>1821.5</ele></trkpt><trkpt lat="42.621981" lon="1.061529"><ele>1817.75</ele></trkpt><trkpt lat="42.622324" lon="1.061636"><ele>1815.75</ele></trkpt><trkpt lat="42.622477" lon="1.06167"><ele>1815.5</ele></trkpt><trkpt lat="42.623009" lon="1.061694"><ele>1812.0</ele></trkpt><trkpt lat="42.62313" lon="1.061686"><ele>1811.5</ele></trkpt><trkpt lat="42.623322" lon="1.061653"><ele>1811.25</ele></trkpt><trkpt lat="42.623365" lon="1.061675"><ele>1811.0</ele></trkpt><trkpt lat="42.62338" lon="1.0617"><ele>1810.25</ele></trkpt><trkpt lat="42.623387" lon="1.061713"><ele>1810.25</ele></trkpt><trkpt lat="42.623384" lon="1.061756"><ele>1809.25</ele></trkpt><trkpt lat="42.623367" lon="1.061787"><ele>1808.25</ele></trkpt><trkpt lat="42.623005" lon="1.061906"><ele>1805.5</ele></trkpt><trkpt lat="42.62258" lon="1.062091"><ele>1798.75</ele></trkpt><trkpt lat="42.622429" lon="1.062135"><ele>1796.25</ele></trkpt><trkpt lat="42.62236" lon="1.06214"><ele>1795.75</ele></trkpt><trkpt lat="42.622287" lon="1.062129"><ele>1795.5</ele></trkpt><trkpt lat="42.621837" lon="1.062029"><ele>1796.75</ele></trkpt><trkpt lat="42.621715" lon="1.062017"><ele>1796.25</ele></trkpt><trkpt lat="42.621593" lon="1.062029"><ele>1797.0</ele></trkpt><trkpt lat="42.621489" lon="1.062098"><ele>1796.5</ele></trkpt><trkpt lat="42.621387" lon="1.062191"><ele>1795.0</ele></trkpt><trkpt lat="42.621184" lon="1.062413"><ele>1790.75</ele></trkpt><trkpt lat="42.620386" lon="1.063424"><ele>1775.0</ele></trkpt><trkpt lat="42.619977" lon="1.063854"><ele>1772.25</ele></trkpt><trkpt lat="42.619726" lon="1.064219"><ele>1764.75</ele></trkpt><trkpt lat="42.619599" lon="1.064344"><ele>1762.75</ele></trkpt><trkpt lat="42.619281" lon="1.064589"><ele>1760.75</ele></trkpt><trkpt lat="42.619082" lon="1.064683"><ele>1759.5</ele></trkpt><trkpt lat="42.618936" lon="1.064781"><ele>1757.0</ele></trkpt><trkpt lat="42.618737" lon="1.065009"><ele>1753.25</ele></trkpt><trkpt lat="42.618693" lon="1.06511"><ele>1751.25</ele></trkpt><trkpt lat="42.618674" lon="1.065196"><ele>1749.5</ele></trkpt><trkpt lat="42.618685" lon="1.065248"><ele>1748.0</ele></trkpt><trkpt lat="42.618708" lon="1.065275"><ele>1747.0</ele></trkpt><trkpt lat="42.618738" lon="1.065281"><ele>1746.5</ele></trkpt><trkpt lat="42.618768" lon="1.065269"><ele>1746.25</ele></trkpt><trkpt lat="42.618804" lon="1.065227"><ele>1747.0</ele></trkpt><trkpt lat="42.618826" lon="1.06516"><ele>1748.5</ele></trkpt><trkpt lat="42.618857" lon="1.065112"><ele>1749.5</ele></trkpt><trkpt lat="42.618957" lon="1.065019"><ele>1751.0</ele></trkpt><trkpt lat="42.61922" lon="1.064904"><ele>1751.75</ele></trkpt><trkpt lat="42.619453" lon="1.064843"><ele>1749.5</ele></trkpt><trkpt lat="42.619853" lon="1.064716"><ele>1746.25</ele></trkpt><trkpt lat="42.621348" lon="1.063974"><ele>1735.5</ele></trkpt><trkpt lat="42.621433" lon="1.063949"><ele>1734.25</ele></trkpt><trkpt lat="42.62156" lon="1.063967"><ele>1730.75</ele></trkpt><trkpt lat="42.621759" lon="1.063966"><ele>1729.5</ele></trkpt><trkpt lat="42.621906" lon="1.063944"><ele>1732.0</ele></trkpt><trkpt lat="42.622024" lon="1.063962"><ele>1733.0</ele></trkpt><trkpt lat="42.622082" lon="1.064009"><ele>1732.75</ele></trkpt><trkpt lat="42.622121" lon="1.064059"><ele>1731.75</ele></trkpt><trkpt lat="42.622128" lon="1.064069"><ele>1731.75</ele></trkpt><trkpt lat="42.622162" lon="1.064136"><ele>1730.75</ele></trkpt><trkpt lat="42.62217" lon="1.064239"><ele>1729.0</ele></trkpt><trkpt lat="42.622171" lon="1.064391"><ele>1726.75</ele></trkpt><trkpt lat="42.622217" lon="1.064633"><ele>1723.75</ele></trkpt><trkpt lat="42.622226" lon="1.06479"><ele>1721.75</ele></trkpt><trkpt lat="42.6222" lon="1.065178"><ele>1715.5</ele></trkpt><trkpt lat="42.62221" lon="1.065347"><ele>1713.5</ele></trkpt><trkpt lat="42.622244" lon="1.065629"><ele>1711.0</ele></trkpt><trkpt lat="42.622251" lon="1.066037"><ele>1708.0</ele></trkpt><trkpt lat="42.622229" lon="1.066419"><ele>1706.25</ele></trkpt><trkpt lat="42.622173" lon="1.066715"><ele>1703.5</ele></trkpt><trkpt lat="42.622071" lon="1.067221"><ele>1700.75</ele></trkpt><trkpt lat="42.621997" lon="1.067487"><ele>1698.0</ele></trkpt><trkpt lat="42.621938" lon="1.06781"><ele>1696.5</ele></trkpt><trkpt lat="42.62193" lon="1.067951"><ele>1696.75</ele></trkpt><trkpt lat="42.621898" lon="1.06814"><ele>1696.25</ele></trkpt><trkpt lat="42.621816" lon="1.068413"><ele>1693.25</ele></trkpt><trkpt lat="42.62175" lon="1.068846"><ele>1688.5</ele></trkpt><trkpt lat="42.621721" lon="1.069091"><ele>1686.0</ele></trkpt><trkpt lat="42.621713" lon="1.069311"><ele>1684.0</ele></trkpt><trkpt lat="42.621716" lon="1.069527"><ele>1682.25</ele></trkpt><trkpt lat="42.621735" lon="1.06986"><ele>1680.25</ele></trkpt><trkpt lat="42.621798" lon="1.070098"><ele>1681.25</ele></trkpt><trkpt lat="42.621816" lon="1.070296"><ele>1680.25</ele></trkpt><trkpt lat="42.621816" lon="1.070517"><ele>1675.5</ele></trkpt><trkpt lat="42.621818" lon="1.070913"><ele>1675.5</ele></trkpt><trkpt lat="42.621808" lon="1.071023"><ele>1675.0</ele></trkpt><trkpt lat="42.621772" lon="1.071141"><ele>1673.25</ele></trkpt><trkpt lat="42.621759" lon="1.071263"><ele>1672.5</ele></trkpt><trkpt lat="42.621752" lon="1.071546"><ele>1672.0</ele></trkpt><trkpt lat="42.621725" lon="1.071704"><ele>1670.5</ele></trkpt><trkpt lat="42.621653" lon="1.071934"><ele>1667.75</ele></trkpt><trkpt lat="42.621509" lon="1.072699"><ele>1662.0</ele></trkpt><trkpt lat="42.621482" lon="1.072893"><ele>1660.5</ele></trkpt><trkpt lat="42.621407" lon="1.073999"><ele>1655.5</ele></trkpt><trkpt lat="42.621405" lon="1.074401"><ele>1653.5</ele></trkpt><trkpt lat="42.62144" lon="1.074835"><ele>1652.5</ele></trkpt><trkpt lat="42.621534" lon="1.075126"><ele>1655.75</ele></trkpt><trkpt lat="42.621544" lon="1.07522"><ele>1656.25</ele></trkpt><trkpt lat="42.621541" lon="1.075299"><ele>1656.0</ele></trkpt><trkpt lat="42.62151" lon="1.075396"><ele>1654.75</ele></trkpt><trkpt lat="42.621378" lon="1.075641"><ele>1649.25</ele></trkpt><trkpt lat="42.621194" lon="1.076077"><ele>1645.25</ele></trkpt><trkpt lat="42.62095" lon="1.076541"><ele>1641.75</ele></trkpt><trkpt lat="42.620831" lon="1.076788"><ele>1640.5</ele></trkpt><trkpt lat="42.620429" lon="1.077757"><ele>1634.25</ele></trkpt><trkpt lat="42.620283" lon="1.078164"><ele>1629.5</ele></trkpt><trkpt lat="42.620207" lon="1.07845"><ele>1626.75</ele></trkpt><trkpt lat="42.620146" lon="1.078765"><ele>1624.75</ele></trkpt><trkpt lat="42.620111" lon="1.079037"><ele>1624.0</ele></trkpt><trkpt lat="42.620065" lon="1.079637"><ele>1622.75</ele></trkpt><trkpt lat="42.619968" lon="1.080197"><ele>1619.25</ele></trkpt><trkpt lat="42.619896" lon="1.080753"><ele>1618.0</ele></trkpt><trkpt lat="42.619858" lon="1.080868"><ele>1616.25</ele></trkpt><trkpt lat="42.619763" lon="1.08109"><ele>1609.25</ele></trkpt><trkpt lat="42.619731" lon="1.081166"><ele>1609.25</ele></trkpt><trkpt lat="42.619691" lon="1.081332"><ele>1607.0</ele></trkpt><trkpt lat="42.619664" lon="1.081488"><ele>1605.5</ele></trkpt><trkpt lat="42.619644" lon="1.081677"><ele>1604.25</ele></trkpt><trkpt lat="42.619647" lon="1.081763"><ele>1603.25</ele></trkpt><trkpt lat="42.619797" lon="1.082153"><ele>1605.25</ele></trkpt><trkpt lat="42.619809" lon="1.082197"><ele>1605.0</ele></trkpt><trkpt lat="42.61981" lon="1.082238"><ele>1604.5</ele></trkpt><trkpt lat="42.619787" lon="1.082278"><ele>1603.0</ele></trkpt><trkpt lat="42.619778" lon="1.082289"><ele>1601.75</ele></trkpt><trkpt lat="42.619768" lon="1.082305"><ele>1601.75</ele></trkpt><trkpt lat="42.619736" lon="1.082313"><ele>1600.25</ele></trkpt><trkpt lat="42.619701" lon="1.082296"><ele>1599.0</ele></trkpt><trkpt lat="42.619473" lon="1.081714"><ele>1595.5</ele></trkpt><trkpt lat="42.619465" lon="1.081511"><ele>1595.5</ele></trkpt><trkpt lat="42.619517" lon="1.080692"><ele>1598.25</ele></trkpt><trkpt lat="42.619495" lon="1.080528"><ele>1597.25</ele></trkpt><trkpt lat="42.619445" lon="1.080336"><ele>1595.0</ele></trkpt><trkpt lat="42.619048" lon="1.079163"><ele>1580.0</ele></trkpt><trkpt lat="42.618946" lon="1.078862"><ele>1577.5</ele></trkpt><trkpt lat="42.618925" lon="1.078843"><ele>1577.0</ele></trkpt><trkpt lat="42.618893" lon="1.078839"><ele>1576.0</ele></trkpt><trkpt lat="42.618852" lon="1.078861"><ele>1574.5</ele></trkpt><trkpt lat="42.618823" lon="1.078959"><ele>1573.5</ele></trkpt><trkpt lat="42.618874" lon="1.079216"><ele>1574.25</ele></trkpt><trkpt lat="42.618879" lon="1.079281"><ele>1574.25</ele></trkpt><trkpt lat="42.618868" lon="1.079349"><ele>1573.75</ele></trkpt><trkpt lat="42.618757" lon="1.079613"><ele>1569.0</ele></trkpt><trkpt lat="42.618741" lon="1.07969"><ele>1568.25</ele></trkpt><trkpt lat="42.618733" lon="1.079774"><ele>1567.5</ele></trkpt><trkpt lat="42.618805" lon="1.080201"><ele>1568.75</ele></trkpt><trkpt lat="42.618795" lon="1.080646"><ele>1566.75</ele></trkpt><trkpt lat="42.618753" lon="1.080851"><ele>1564.0</ele></trkpt><trkpt lat="42.618746" lon="1.08089"><ele>1564.0</ele></trkpt><trkpt lat="42.618691" lon="1.081172"><ele>1561.25</ele></trkpt><trkpt lat="42.618534" lon="1.081964"><ele>1551.75</ele></trkpt><trkpt lat="42.618484" lon="1.082216"><ele>1548.75</ele></trkpt><trkpt lat="42.618472" lon="1.082231"><ele>1547.0</ele></trkpt><trkpt lat="42.61845" lon="1.082263"><ele>1547.0</ele></trkpt><trkpt lat="42.618407" lon="1.082275"><ele>1545.25</ele></trkpt><trkpt lat="42.618389" lon="1.082258"><ele>1544.75</ele></trkpt><trkpt lat="42.618349" lon="1.082152"><ele>1543.25</ele></trkpt><trkpt lat="42.618248" lon="1.081938"><ele>1542.75</ele></trkpt><trkpt lat="42.618238" lon="1.081917"><ele>1542.75</ele></trkpt><trkpt lat="42.618178" lon="1.081959"><ele>1542.25</ele></trkpt><trkpt lat="42.618197" lon="1.082023"><ele>1542.25</ele></trkpt><trkpt lat="42.618364" lon="1.082575"><ele>1542.0</ele></trkpt><trkpt lat="42.618657" lon="1.083451"><ele>1539.25</ele></trkpt><trkpt lat="42.618835" lon="1.084092"><ele>1532.25</ele></trkpt><trkpt lat="42.619123" lon="1.08507"><ele>1519.75</ele></trkpt><trkpt lat="42.619344" lon="1.085538"><ele>1519.75</ele></trkpt><trkpt lat="42.619411" lon="1.085717"><ele>1519.0</ele></trkpt><trkpt lat="42.619731" lon="1.086888"><ele>1508.0</ele></trkpt><trkpt lat="42.620098" lon="1.087819"><ele>1503.25</ele></trkpt><trkpt lat="42.620736" lon="1.08998"><ele>1487.25</ele></trkpt><trkpt lat="42.620992" lon="1.090664"><ele>1480.5</ele></trkpt><trkpt lat="42.6215" lon="1.091564"><ele>1476.0</ele></trkpt><trkpt lat="42.621607" lon="1.091798"><ele>1473.25</ele></trkpt><trkpt lat="42.622026" lon="1.092956"><ele>1461.5</ele></trkpt><trkpt lat="42.622069" lon="1.093104"><ele>1460.0</ele></trkpt><trkpt lat="42.622073" lon="1.093272"><ele>1457.25</ele></trkpt><trkpt lat="42.622035" lon="1.09338"><ele>1454.5</ele></trkpt><trkpt lat="42.621994" lon="1.093439"><ele>1452.5</ele></trkpt><trkpt lat="42.621934" lon="1.093472"><ele>1450.5</ele></trkpt><trkpt lat="42.621853" lon="1.093488"><ele>1448.25</ele></trkpt><trkpt lat="42.62178" lon="1.093451"><ele>1447.0</ele></trkpt><trkpt lat="42.621654" lon="1.093294"><ele>1446.25</ele></trkpt><trkpt lat="42.621224" lon="1.092683"><ele>1445.75</ele></trkpt><trkpt lat="42.620948" lon="1.092385"><ele>1444.0</ele></trkpt><trkpt lat="42.620643" lon="1.092087"><ele>1443.0</ele></trkpt><trkpt lat="42.620345" lon="1.091809"><ele>1440.75</ele></trkpt><trkpt lat="42.620238" lon="1.091738"><ele>1439.25</ele></trkpt><trkpt lat="42.62017" lon="1.091724"><ele>1437.5</ele></trkpt><trkpt lat="42.620099" lon="1.091732"><ele>1435.75</ele></trkpt><trkpt lat="42.620055" lon="1.09178"><ele>1434.0</ele></trkpt><trkpt lat="42.620011" lon="1.091844"><ele>1432.0</ele></trkpt><trkpt lat="42.61999" lon="1.091934"><ele>1430.5</ele></trkpt><trkpt lat="42.619991" lon="1.092071"><ele>1429.0</ele></trkpt><trkpt lat="42.620178" lon="1.09274"><ele>1425.25</ele></trkpt><trkpt lat="42.620203" lon="1.092928"><ele>1424.0</ele></trkpt><trkpt lat="42.620195" lon="1.093265"><ele>1421.25</ele></trkpt><trkpt lat="42.62014" lon="1.093682"><ele>1417.0</ele></trkpt><trkpt lat="42.620066" lon="1.093934"><ele>1413.75</ele></trkpt><trkpt lat="42.619977" lon="1.094136"><ele>1410.75</ele></trkpt><trkpt lat="42.619706" lon="1.094494"><ele>1404.5</ele></trkpt><trkpt lat="42.619529" lon="1.094772"><ele>1400.25</ele></trkpt><trkpt lat="42.619511" lon="1.094829"><ele>1399.5</ele></trkpt><trkpt lat="42.619504" lon="1.094886"><ele>1399.0</ele></trkpt><trkpt lat="42.61952" lon="1.094925"><ele>1399.0</ele></trkpt><trkpt lat="42.619678" lon="1.095159"><ele>1397.75</ele></trkpt><trkpt lat="42.619824" lon="1.095748"><ele>1391.75</ele></trkpt><trkpt lat="42.619746" lon="1.095694"><ele>1391.75</ele></trkpt></trkseg></trk></gpx>